NORAD_CAT_ID,OBJECT_NAME,OBJECT_TYPE,EPOCH,MEAN_MOTION,ECCENTRICITY,INCLINATION,RA_OF_ASC_NODE,ARG_OF_PERICENTER,MEAN_ANOMALY,BSTAR,MEAN_MOTION_DOT,MEAN_MOTION_DDOT,TLE_LINE0,TLE_LINE1,TLE_LINE2,SEMIMAJOR_AXIS,PERIOD,APOGEE,PERIGEE,DECAYED
56486.0,STARLINK-6201,PAYLOAD,2023-10-13 09:40:37,14.98335985,0.0002741,70.0001,178.8004,274.937,85.1476,-4.6516e-05,-6.48e-06,0.0,0 STARLINK-6201,1 56486U 23064AQ  23286.40321103 -.00000648  00000-0 -46516-4 0  9995,2 56486  70.0001 178.8004 0002741 274.9370  85.1476 14.98335985 24184,6950.174,96.107,573.944,570.134,0.0
56486.0,STARLINK-6201,PAYLOAD,2023-10-13 20:53:33,14.98333098,0.0002795,70.0,177.622,271.0648,89.0191,5.7294e-05,5.91e-06,0.0,0 STARLINK-6201,1 56486U 23064AQ  23286.87052870  .00000591  00000-0  57294-4 0  9998,2 56486  70.0000 177.6220 0002795 271.0648  89.0191 14.98333098 24253,6950.183,96.107,573.991,570.106,0.0
56486.0,STARLINK-6201,PAYLOAD,2023-10-14 03:18:05,14.9834207,0.0002829,70.0,176.949,273.3199,86.7637,0.00015036,1.702e-05,0.0,0 STARLINK-6201,1 56486U 23064AQ  23287.13755883  .00001702  00000-0  15036-3 0  9994,2 56486  70.0000 176.9490 0002829 273.3199  86.7637 14.98342070 24651,6950.156,96.106,573.987,570.054,0.0
56486.0,STARLINK-6201,PAYLOAD,2023-10-14 09:42:38,14.983293,0.0002954,69.9997,176.2747,274.6093,85.4729,-7.2695e-05,-9.6e-06,0.0,0 STARLINK-6201,1 56486U 23064AQ  23287.40461111 -.00000960  00000-0 -72695-4 0  9994,2 56486  69.9997 176.2747 0002954 274.6093  85.4729 14.98329300 24690,6950.195,96.107,574.113,570.007,0.0
56486.0,STARLINK-6201,PAYLOAD,2023-10-14 20:55:35,14.9832245,0.0002648,70.0001,175.0977,272.1932,87.8924,-0.00014229,-1.79e-05,0.0,0 STARLINK-6201,1 56486U 23064AQ  23287.87193932 -.00001790  00000-0 -14229-3 0  9998,2 56486  70.0001 175.0977 0002648 272.1932  87.8924 14.98322450 24766,6950.216,96.107,573.922,570.241,0.0
56486.0,STARLINK-6201,PAYLOAD,2023-10-14 22:31:43,14.98320696,0.000286,69.9995,174.9291,268.8056,91.2775,-0.00012639,-1.6e-05,0.0,0 STARLINK-6201,1 56486U 23064AQ  23287.93869979 -.00001600  00000-0 -12639-3 0  9999,2 56486  69.9995 174.9291 0002860 268.8056  91.2775 14.98320696 24412,6950.222,96.108,574.074,570.099,0.0
56486.0,STARLINK-6201,PAYLOAD,2023-10-15 09:44:39,14.98329971,0.000299,69.9989,173.7495,274.3084,85.7733,-0.00012794,-1.619e-05,0.0,0 STARLINK-6201,1 56486U 23064AQ  23288.40601500 -.00001619  00000-0 -12794-3 0  9998,2 56486  69.9989 173.7495 0002990 274.3084  85.7733 14.98329971 24849,6950.193,96.107,574.136,569.98,0.0
56486.0,STARLINK-6201,PAYLOAD,2023-10-15 20:57:35,14.98332758,0.0002815,69.9999,172.5733,269.3572,90.7265,9.834e-06,2.4e-07,0.0,0 STARLINK-6201,1 56486U 23064AQ  23288.87333007  .00000024  00000-0  98340-5 0  9993,2 56486  69.9999 172.5733 0002815 269.3572  90.7265 14.98332758 24555,6950.184,96.107,574.006,570.093,0.0
56486.0,STARLINK-6201,PAYLOAD,2023-10-16 01:45:59,14.9833703,0.0002947,69.9992,172.0676,268.5125,91.5697,-1.5716e-05,-2.81e-06,0.0,0 STARLINK-6201,1 56486U 23064AQ  23289.07360728 -.00000281  00000-0 -15716-4 0  9998,2 56486  69.9992 172.0676 0002947 268.5125  91.5697 14.98337030 24949,6950.171,96.107,574.084,569.988,0.0
56486.0,STARLINK-6201,PAYLOAD,2023-10-16 16:11:12,14.98321858,0.0002979,69.9991,170.5527,272.3814,87.7004,0.00014088,1.588e-05,0.0,0 STARLINK-6201,1 56486U 23064AQ  23289.67445200  .00001588  00000-0  14088-3 0  9992,2 56486  69.9991 170.5527 0002979 272.3814  87.7004 14.98321858 25030,6950.218,96.108,574.154,570.013,0.0
56486.0,STARLINK-6201,PAYLOAD,2023-10-17 09:48:41,14.98329532,0.0002909,69.999,168.6993,272.4036,87.6789,7.8838e-05,8.48e-06,0.0,0 STARLINK-6201,1 56486U 23064AQ  23290.40880941  .00000848  00000-0  78838-4 0  9992,2 56486  69.9990 168.6993 0002909 272.4036  87.6789 14.98329532 24781,6950.194,96.107,574.081,570.038,0.0
56486.0,STARLINK-6201,PAYLOAD,2023-10-18 01:50:01,14.98329616,0.000273,69.9995,167.0171,269.8931,90.1915,6.8334e-06,-1.1e-07,0.0,0 STARLINK-6201,1 56486U 23064AQ  23291.07641104 -.00000011  00000-0  68334-5 0  9996,2 56486  69.9995 167.0171 0002730 269.8931  90.1915 14.98329616 25248,6950.194,96.107,573.956,570.162,0.0
56486.0,STARLINK-6201,PAYLOAD,2023-10-18 22:39:46,14.98297675,0.0002673,70.0003,164.8291,273.8638,86.2215,0.00063148,7.443e-05,0.0,0 STARLINK-6201,1 56486U 23064AQ  23291.94429283  .00007443  00000-0  63148-3 0  9995,2 56486  70.0003 164.8291 0002673 273.8638  86.2215 14.98297675 25017,6950.293,96.109,574.016,570.3,0.0
56486.0,STARLINK-6201,PAYLOAD,2023-10-19 01:52:02,14.98332943,0.00028,70.0005,164.4923,271.3282,88.7557,0.00010111,1.114e-05,0.0,0 STARLINK-6201,1 56486U 23064AQ  23292.07780398  .00001114  00000-0  10111-3 0  9998,2 56486  70.0005 164.4923 0002800 271.3282  88.7557 14.98332943 25392,6950.184,96.107,573.995,570.103,0.0
56486.0,STARLINK-6201,PAYLOAD,2023-10-20 01:54:02,14.98336397,0.0002928,70.0,161.9664,275.9458,84.1367,5.2857e-05,5.38e-06,0.0,0 STARLINK-6201,1 56486U 23064AQ  23293.07919844  .00000538  00000-0  52857-4 0  9992,2 56486  70.0000 161.9664 0002928 275.9458  84.1367 14.98336397 25540,6950.173,96.107,574.073,570.003,0.0
56486.0,STARLINK-6201,PAYLOAD,2023-10-20 21:07:40,14.9832283,0.0002678,69.9993,159.9474,287.3677,72.7189,-0.00012854,-1.626e-05,0.0,0 STARLINK-6201,1 56486U 23064AQ  23293.88033540 -.00001626  00000-0 -12854-3 0  9994,2 56486  69.9993 159.9474 0002678 287.3677  72.7189 14.98322830 25302,6950.215,96.107,573.941,570.219,0.0
56486.0,STARLINK-6201,PAYLOAD,2023-10-21 01:56:05,14.98321101,0.000275,69.9991,159.4422,272.8601,87.2243,-0.0001455,-1.828e-05,0.0,0 STARLINK-6201,1 56486U 23064AQ  23294.08061607 -.00001828  00000-0 -14550-3 0  9991,2 56486  69.9991 159.4422 0002750 272.8601  87.2243 14.98321101 25699,6950.22,96.108,573.997,570.174,0.0
56486.0,STARLINK-6201,PAYLOAD,2023-10-21 08:20:37,14.98326664,0.0002729,69.9985,158.7701,267.7949,92.2898,-9.1169e-05,-1.18e-05,0.0,0 STARLINK-6201,1 56486U 23064AQ  23294.34765185 -.00001180  00000-0 -91169-4 0  9995,2 56486  69.9985 158.7701 0002729 267.7949  92.2898 14.98326664 25734,6950.203,96.107,573.965,570.171,0.0
56486.0,STARLINK-6201,PAYLOAD,2023-10-21 22:45:48,14.98340606,0.0003156,69.9971,157.2538,271.4846,88.5951,-3.9715e-05,-5.67e-06,0.0,0 STARLINK-6201,1 56486U 23064AQ  23294.94847929 -.00000567  00000-0 -39715-4 0  9995,2 56486  69.9971 157.2538 0003156 271.4846  88.5951 14.98340606 25464,6950.16,96.106,574.219,569.832,0.0
56486.0,STARLINK-6201,PAYLOAD,2023-10-22 01:58:04,14.98336815,0.0003085,69.9985,156.9175,265.6133,94.4674,-3.9976e-05,-5.7e-06,0.0,0 STARLINK-6201,1 56486U 23064AQ  23295.08200064 -.00000570  00000-0 -39976-4 0  9997,2 56486  69.9985 156.9175 0003085 265.6133  94.4674 14.98336815 25844,6950.172,96.107,574.181,569.893,0.0
56486.0,STARLINK-6201,PAYLOAD,2023-10-22 08:22:37,14.98329388,0.0002482,69.9998,156.243,279.784,80.3039,-5.7831e-05,-7.83e-06,0.0,0 STARLINK-6201,1 56486U 23064AQ  23295.34904863 -.00000783  00000-0 -57831-4 0  9990,2 56486  69.9998 156.2430 0002482 279.7840  80.3039 14.98329388 25886,6950.195,96.107,573.785,570.335,0.0
56486.0,STARLINK-6201,PAYLOAD,2023-10-22 19:35:35,14.98296078,0.0002787,69.9982,155.0654,283.1643,76.9205,0.00032821,3.822e-05,0.0,0 STARLINK-6201,1 56486U 23064AQ  23295.81637865  .00003822  00000-0  32821-3 0  9993,2 56486  69.9982 155.0654 0002787 283.1643  76.9205 14.98296078 25955,6950.298,96.109,574.1,570.226,0.0
56486.0,STARLINK-6201,PAYLOAD,2023-10-22 22:47:51,14.98313388,0.0002337,69.9993,154.7292,266.4394,93.6498,1.1747e-05,4.7e-07,0.0,0 STARLINK-6201,1 56486U 23064AQ  23295.94989997  .00000047  00000-0  11747-4 0  9994,2 56486  69.9993 154.7292 0002337 266.4394  93.6498 14.98313388 25616,6950.244,96.108,573.734,570.485,0.0
56486.0,STARLINK-6201,PAYLOAD,2023-10-23 00:23:59,14.98314357,0.0002514,69.9989,154.5607,266.5795,93.5076,1.8937e-05,1.33e-06,0.0,0 STARLINK-6201,1 56486U 23064AQ  23296.01665931  .00000133  00000-0  18937-4 0  9996,2 56486  69.9989 154.5607 0002514 266.5795  93.5076 14.98314357 25980,6950.241,96.108,573.854,570.359,0.0
56486.0,STARLINK-6201,PAYLOAD,2023-10-23 21:13:43,14.98371951,0.0002789,69.9998,152.3719,272.4447,87.6393,-0.0006883,-8.305e-05,0.0,0 STARLINK-6201,1 56486U 23064AQ  23296.88452726 -.00008305  00000-0 -68830-3 0  9994,2 56486  69.9998 152.3719 0002789 272.4447  87.6393 14.98371951 26119,6950.063,96.104,573.867,569.99,0.0
56486.0,STARLINK-6201,PAYLOAD,2023-10-24 00:25:59,14.98360751,0.0003179,69.9991,152.0354,271.4124,88.6671,-0.00051933,-6.289e-05,0.0,0 STARLINK-6201,1 56486U 23064AQ  23297.01804664 -.00006289  00000-0 -51933-3 0  9997,2 56486  69.9991 152.0354 0003179 271.4124  88.6671 14.98360751 26137,6950.098,96.105,574.172,569.753,0.0
56486.0,STARLINK-6201,PAYLOAD,2023-10-25 21:17:44,14.9833922,0.0003052,69.9985,147.3227,277.5726,82.5087,0.00020991,2.413e-05,0.0,0 STARLINK-6201,1 56486U 23064AQ  23298.88731619  .00002413  00000-0  20991-3 0  9995,2 56486  69.9985 147.3227 0003052 277.5726  82.5087 14.98339220 26413,6950.164,96.106,574.151,569.908,0.0
56486.0,STARLINK-6201,PAYLOAD,2023-10-26 00:30:00,14.98322768,0.0003088,69.998,146.9859,272.0503,88.0302,0.00021412,2.462e-05,0.0,0 STARLINK-6201,1 56486U 23064AQ  23299.02084468  .00002462  00000-0  21412-3 0  9998,2 56486  69.9980 146.9859 0003088 272.0503  88.0302 14.98322768 26438,6950.215,96.107,574.226,569.934,0.0
56486.0,STARLINK-6201,PAYLOAD,2023-10-26 21:19:45,14.98341991,0.0002917,69.9978,144.7971,268.8124,91.27,-0.00017979,-2.238e-05,0.0,0 STARLINK-6201,1 56486U 23064AQ  23299.88872214 -.00002238  00000-0 -17979-3 0  9992,2 56486  69.9978 144.7971 0002917 268.8124  91.2700 14.98341991 26200,6950.156,96.106,574.048,569.993,0.0
56486.0,STARLINK-6201,PAYLOAD,2023-10-27 00:32:01,14.98341143,0.0002942,69.998,144.4609,270.0211,90.061,-0.00015908,-1.991e-05,0.0,0 STARLINK-6201,1 56486U 23064AQ  23300.02224124 -.00001991  00000-0 -15908-3 0  9997,2 56486  69.9980 144.4609 0002942 270.0211  90.0610 14.98341143 26585,6950.158,96.106,574.068,569.979,0.0
